<?xml version="1.0" encoding="UTF-8"?>
<gpx version="1.1" creator="360Tour Demo" 
     xsi:schemaLocation="http://www.topografix.com/GPX/1/1 http://www.topografix.com/GPX/1/1/gpx.xsd"
     xmlns="http://www.topografix.com/GPX/1/1"
     xmlns:xsi="http://www.w3.org/2001/XMLSchema-instance">
  <metadata>
    <name>KPHB Office Tour Sample Track</name>
    <desc>Sample GPX track for 360 tour demonstration</desc>
    <author>
      <name>360Tour</name>
    </author>
    <time>2025-01-04T06:22:32Z</time>
  </metadata>
  <trk>
    <name>Office Walk</name>
    <desc>Walking path through the office area</desc>
    <trkseg>
      <trkpt lat="17.50066667" lon="78.40577778">
        <ele>484.60</ele>
        <time>2025-01-04T06:22:32Z</time>
      </trkpt>
      <trkpt lat="17.50069444" lon="78.40580556">
        <ele>487.50</ele>
        <time>2025-01-04T06:22:50Z</time>
      </trkpt>
      <trkpt lat="17.50069444" lon="78.40583333">
        <ele>487.50</ele>
        <time>2025-01-04T06:23:24Z</time>
      </trkpt>
      <trkpt lat="17.50069444" lon="78.40583333">
        <ele>487.50</ele>
        <time>2025-01-04T06:23:43Z</time>
      </trkpt>
      <trkpt lat="17.50072222" lon="78.40580556">
        <ele>486.30</ele>
        <time>2025-01-04T06:23:58Z</time>
      </trkpt>
      <trkpt lat="17.50066667" lon="78.40566667">
        <ele>485.80</ele>
        <time>2025-01-04T06:24:16Z</time>
      </trkpt>
      <trkpt lat="17.50069444" lon="78.40575000">
        <ele>486.20</ele>
        <time>2025-01-04T06:24:32Z</time>
      </trkpt>
      <trkpt lat="17.50061111" lon="78.40558333">
        <ele>481.90</ele>
        <time>2025-01-04T06:24:50Z</time>
      </trkpt>
      <trkpt lat="17.50050000" lon="78.40566667">
        <ele>490.70</ele>
        <time>2025-01-04T06:25:02Z</time>
      </trkpt>
    </trkseg>
  </trk>
</gpx>